stk.v.11.0


# WrittenBy    STK_v11.2.0

BEGIN Ephemeris

NumberOfEphemerisPoints 14401

ScenarioEpoch            9 May 2025 08:20:000.000000

# Epoch in JDate format: 2460814.847222222
# Epoch in YYDDD format:   25139.34722222222222


InterpolationMethod     Lagrange

InterpolationSamplesM1      7

CentralBody             Earth

CoordinateSystem        ECI 

# Time of first point: 9 May 2025 08:20:000.000000 UTCG = 2460814.847222222 JDate = 25139.34722222222222 YYDDD
EphemerisTimePosVel

1.28520000000000e+05 6.94999903355352e+06 -1.35457328406148e+08 9.63828973216161e+08 -7.57363127705251e-06 -1.05397859011921e+03 7.49944734817546e+03
1.28580000000000e+05 6.94999903309910e+06 -1.35520567121555e+08 9.64278940057051e+08 -7.57363140547238e-06 -1.05397859011921e+03 7.49944734817544e+03
1.28640000000000e+05 6.94999903264469e+06 -1.35583805836962e+08 9.64728906897941e+08 -7.57363153389225e-06 -1.05397859011921e+03 7.49944734817542e+03
1.28700000000000e+05 6.94999903219027e+06 -1.35647044552369e+08 9.65178873738832e+08 -7.57363166231212e-06 -1.05397859011920e+03 7.49944734817540e+03
1.28760000000000e+05 6.94999903173584e+06 -1.35710283267776e+08 9.65628840579722e+08 -7.57363179073199e-06 -1.05397859011920e+03 7.49944734817538e+03
1.28820000000000e+05 6.94999903128143e+06 -1.35773521983183e+08 9.66078807420612e+08 -7.57363191915187e-06 -1.05397859011920e+03 7.49944734817536e+03
1.28880000000000e+05 6.94999903082701e+06 -1.35836760698590e+08 9.66528774261502e+08 -7.57363204757174e-06 -1.05397859011919e+03 7.49944734817534e+03
1.28940000000000e+05 6.94999903037259e+06 -1.35899999413998e+08 9.66978741102392e+08 -7.57363217599161e-06 -1.05397859011919e+03 7.49944734817532e+03
1.29000000000000e+05 6.94999902991817e+06 -1.35963238129405e+08 9.67428707943283e+08 -7.57363230441148e-06 -1.05397859011919e+03 7.49944734817530e+03
1.29060000000000e+05 6.94999902946375e+06 -1.36026476844812e+08 9.67878674784173e+08 -7.57363243283135e-06 -1.05397859011919e+03 7.49944734817528e+03
1.29120000000000e+05 6.94999902900933e+06 -1.36089715560219e+08 9.68328641625063e+08 -7.57363256125122e-06 -1.05397859011918e+03 7.49944734817526e+03
1.29180000000000e+05 6.94999902855491e+06 -1.36152954275626e+08 9.68778608465953e+08 -7.57363268967109e-06 -1.05397859011918e+03 7.49944734817524e+03
1.29240000000000e+05 6.94999902810049e+06 -1.36216192991033e+08 9.69228575306844e+08 -7.57363281809096e-06 -1.05397859011918e+03 7.49944734817522e+03
1.29300000000000e+05 6.94999902764607e+06 -1.36279431706440e+08 9.69678542147734e+08 -7.57363294651083e-06 -1.05397859011918e+03 7.49944734817520e+03
1.29360000000000e+05 6.94999902719165e+06 -1.36342670421847e+08 9.70128508988624e+08 -7.57363307493070e-06 -1.05397859011917e+03 7.49944734817518e+03
1.29420000000000e+05 6.94999902673723e+06 -1.36405909137254e+08 9.70578475829514e+08 -7.57363320335057e-06 -1.05397859011917e+03 7.49944734817516e+03
1.29480000000000e+05 6.94999902628281e+06 -1.36469147852662e+08 9.71028442670404e+08 -7.57363333177044e-06 -1.05397859011917e+03 7.49944734817514e+03
1.29540000000000e+05 6.94999902582839e+06 -1.36532386568069e+08 9.71478409511295e+08 -7.57363346019031e-06 -1.05397859011916e+03 7.49944734817512e+03
1.29600000000000e+05 6.94999902537397e+06 -1.36595625283476e+08 9.71928376352185e+08 -7.57363358861019e-06 -1.05397859011916e+03 7.49944734817510e+03
1.29660000000000e+05 6.94999902491955e+06 -1.36658863998883e+08 9.72378343193075e+08 -7.57363371703006e-06 -1.05397859011916e+03 7.49944734817508e+03
1.29720000000000e+05 6.94999902446513e+06 -1.36722102714290e+08 9.72828310033965e+08 -7.57363384544993e-06 -1.05397859011916e+03 7.49944734817506e+03
1.29780000000000e+05 6.94999902401071e+06 -1.36785341429697e+08 9.73278276874856e+08 -7.57363397386980e-06 -1.05397859011915e+03 7.49944734817504e+03
1.29840000000000e+05 6.94999902355629e+06 -1.36848580145104e+08 9.73728243715746e+08 -7.57363410228967e-06 -1.05397859011915e+03 7.49944734817502e+03
1.29900000000000e+05 6.94999902310187e+06 -1.36911818860511e+08 9.74178210556636e+08 -7.57363423070954e-06 -1.05397859011915e+03 7.49944734817500e+03
1.29960000000000e+05 6.94999902264745e+06 -1.36975057575918e+08 9.74628177397526e+08 -7.57363435912941e-06 -1.05397859011914e+03 7.49944734817498e+03
1.30020000000000e+05 6.94999902219303e+06 -1.37038296291325e+08 9.75078144238416e+08 -7.57363448754928e-06 -1.05397859011914e+03 7.49944734817496e+03
1.30080000000000e+05 6.94999902173861e+06 -1.37101535006733e+08 9.75528111079307e+08 -7.57363461596915e-06 -1.05397859011914e+03 7.49944734817494e+03
1.30140000000000e+05 6.94999902128419e+06 -1.37164773722140e+08 9.75978077920197e+08 -7.57363474438902e-06 -1.05397859011914e+03 7.49944734817492e+03
1.30200000000000e+05 6.94999902082977e+06 -1.37228012437547e+08 9.76428044761087e+08 -7.57363487280889e-06 -1.05397859011913e+03 7.49944734817490e+03
1.30260000000000e+05 6.94999902037535e+06 -1.37291251152954e+08 9.76878011601977e+08 -7.57363500122876e-06 -1.05397859011913e+03 7.49944734817488e+03
1.30320000000000e+05 6.94999901992093e+06 -1.37354489868361e+08 9.77327978442868e+08 -7.57363512964863e-06 -1.05397859011913e+03 7.49944734817486e+03
1.30380000000000e+05 6.94999901946651e+06 -1.37417728583768e+08 9.77777945283758e+08 -7.57363525806851e-06 -1.05397859011912e+03 7.49944734817484e+03
1.30440000000000e+05 6.94999901901209e+06 -1.37480967299175e+08 9.78227912124648e+08 -7.57363538648838e-06 -1.05397859011912e+03 7.49944734817482e+03
1.30500000000000e+05 6.94999901855767e+06 -1.37544206014582e+08 9.78677878965538e+08 -7.57363551490825e-06 -1.05397859011912e+03 7.49944734817480e+03
1.30560000000000e+05 6.94999901810325e+06 -1.37607444729989e+08 9.79127845806428e+08 -7.57363564332812e-06 -1.05397859011912e+03 7.49944734817478e+03
1.30620000000000e+05 6.94999901764883e+06 -1.37670683445397e+08 9.79577812647319e+08 -7.57363577174799e-06 -1.05397859011911e+03 7.49944734817476e+03
1.30680000000000e+05 6.94999901719441e+06 -1.37733922160804e+08 9.80027779488209e+08 -7.57363590016786e-06 -1.05397859011911e+03 7.49944734817474e+03
1.30740000000000e+05 6.94999901673999e+06 -1.37797160876211e+08 9.80477746329099e+08 -7.57363602858773e-06 -1.05397859011911e+03 7.49944734817472e+03
1.30800000000000e+05 6.94999901628557e+06 -1.37860399591618e+08 9.80927713169989e+08 -7.57363615700760e-06 -1.05397859011911e+03 7.49944734817470e+03
1.30860000000000e+05 6.94999901583115e+06 -1.37923638307025e+08 9.81377680010880e+08 -7.57363628542747e-06 -1.05397859011910e+03 7.49944734817468e+03
1.30920000000000e+05 6.94999901537673e+06 -1.37986877022432e+08 9.81827646851770e+08 -7.57363641384734e-06 -1.05397859011910e+03 7.49944734817466e+03
1.30980000000000e+05 6.94999901492231e+06 -1.38050115737839e+08 9.82277613692660e+08 -7.57363654226721e-06 -1.05397859011910e+03 7.49944734817464e+03
1.31040000000000e+05 6.94999901446789e+06 -1.38113354453246e+08 9.82727580533550e+08 -7.57363667068708e-06 -1.05397859011909e+03 7.49944734817462e+03
1.31100000000000e+05 6.94999901401347e+06 -1.38176593168653e+08 9.83177547374440e+08 -7.57363679910695e-06 -1.05397859011909e+03 7.49944734817460e+03
1.31160000000000e+05 6.94999901355905e+06 -1.38239831884061e+08 9.83627514215331e+08 -7.57363692752682e-06 -1.05397859011909e+03 7.49944734817458e+03
1.31220000000000e+05 6.94999901310463e+06 -1.38303070599468e+08 9.84077481056221e+08 -7.57363705594669e-06 -1.05397859011909e+03 7.49944734817456e+03
1.31280000000000e+05 6.94999901265021e+06 -1.38366309314875e+08 9.84527447897111e+08 -7.57363718436657e-06 -1.05397859011908e+03 7.49944734817454e+03
1.31340000000000e+05 6.94999901219579e+06 -1.38429548030282e+08 9.84977414738001e+08 -7.57363731278644e-06 -1.05397859011908e+03 7.49944734817452e+03
1.31400000000000e+05 6.94999901174137e+06 -1.38492786745689e+08 9.85427381578892e+08 -7.57363744120631e-06 -1.05397859011908e+03 7.49944734817450e+03
1.31460000000000e+05 6.94999901128695e+06 -1.38556025461096e+08 9.85877348419782e+08 -7.57363756962618e-06 -1.05397859011907e+03 7.49944734817448e+03
1.31520000000000e+05 6.94999901083253e+06 -1.38619264176503e+08 9.86327315260672e+08 -7.57363769804605e-06 -1.05397859011907e+03 7.49944734817446e+03
1.31580000000000e+05 6.94999901037811e+06 -1.38682502891910e+08 9.86777282101562e+08 -7.57363782646592e-06 -1.05397859011907e+03 7.49944734817444e+03
1.31640000000000e+05 6.94999900992369e+06 -1.38745741607317e+08 9.87227248942452e+08 -7.57363795488579e-06 -1.05397859011907e+03 7.49944734817442e+03
1.31700000000000e+05 6.94999900946927e+06 -1.38808980322725e+08 9.87677215783343e+08 -7.57363808330566e-06 -1.05397859011906e+03 7.49944734817440e+03
1.31760000000000e+05 6.94999900901485e+06 -1.38872219038132e+08 9.88127182624233e+08 -7.57363821172553e-06 -1.05397859011906e+03 7.49944734817438e+03
1.31820000000000e+05 6.94999900856043e+06 -1.38935457753539e+08 9.88577149465123e+08 -7.57363834014540e-06 -1.05397859011906e+03 7.49944734817436e+03
1.31880000000000e+05 6.94999900810601e+06 -1.38998696468946e+08 9.89027116306013e+08 -7.57363846856527e-06 -1.05397859011905e+03 7.49944734817434e+03
1.31940000000000e+05 6.94999900765159e+06 -1.39061935184353e+08 9.89477083146904e+08 -7.57363859698514e-06 -1.05397859011905e+03 7.49944734817432e+03
1.32000000000000e+05 6.94999900719717e+06 -1.39125173899760e+08 9.89927049987794e+08 -7.57363872540501e-06 -1.05397859011905e+03 7.49944734817430e+03
1.32060000000000e+05 6.94999900674275e+06 -1.39188412615167e+08 9.90377016828684e+08 -7.57363885382489e-06 -1.05397859011905e+03 7.49944734817428e+03
1.32120000000000e+05 6.94999900628833e+06 -1.39251651330574e+08 9.90826983669574e+08 -7.57363898224476e-06 -1.05397859011904e+03 7.49944734817426e+03
1.32180000000000e+05 6.94999900583391e+06 -1.39314890045981e+08 9.91276950510464e+08 -7.57363911066463e-06 -1.05397859011904e+03 7.49944734817424e+03
1.32240000000000e+05 6.94999900537949e+06 -1.39378128761389e+08 9.91726917351355e+08 -7.57363923908450e-06 -1.05397859011904e+03 7.49944734817422e+03
END Ephemeris